STARLINK-31822          
1 59752U 24090Y   26068.63800315 -.00000153  00000+0  39532-5 0  9997
2 59752  43.0026 183.6643 0001230 250.1651 109.9068 15.27570605103423
TEVEL2-7                
1 63238U 25052AE  26068.66113295  .00019244  00000+0  69668-3 0  9998
2 63238  97.4054 324.3041 0008105 124.6830 235.5175 15.28414096 54803
